{
  "type": "FeatureCollection",
  "features": [
    {
      "type": "Feature",
      "properties": {
        "norad_id": 37487,
        "name": "COSMOS 2251 DEB",
        "group": "cosmos-2251-debris",
        "lat": 20.437342648468302,
        "lon": 177.04279092011376,
        "alt_km": 606.3151225337851,
        "timestamp": "2025-12-23T09:49:07.480672+00:00",
        "meta_object_name": "COSMOS 2251 DEB",
        "meta_object_id": "1993-036BLQ",
        "meta_epoch": "2025-12-12T06:17:24.389376",
        "meta_mean_motion": 14.80982589,
        "meta_eccentricity": 0.00255931,
        "meta_inclination": 73.9026,
        "meta_ra_of_asc_node": 193.0379,
        "meta_arg_of_pericenter": 31.2136,
        "meta_mean_anomaly": 329.0553,
        "meta_ephemeris_type": 0,
        "meta_classification_type": "U",
        "meta_norad_cat_id": 37487,
        "meta_element_set_no": 999,
        "meta_rev_at_epoch": 81238,
        "meta_bstar": 0.0042593386,
        "meta_mean_motion_dot": 0.00033302,
        "meta_mean_motion_ddot": 0,
        "tle_line1": "1 37487U 93036BLQ 25346.26208784  .00033302  00000+0  42593-2 0  9992",
        "tle_line2": "2 37487  73.9026 193.0379 0025593  31.2136 329.0553 14.80982589812383"
      },
      "geometry": {
        "type": "Point",
        "coordinates": [
          177.04279092011376,
          20.437342648468302
        ]
      }
    },
    {
      "type": "Feature",
      "properties": {
        "norad_id": 37491,
        "name": "COSMOS 2251 DEB",
        "group": "cosmos-2251-debris",
        "lat": 31.537635170751543,
        "lon": -93.59022148140583,
        "alt_km": 1168.454697999182,
        "timestamp": "2025-12-23T09:49:07.480682+00:00",
        "meta_object_name": "COSMOS 2251 DEB",
        "meta_object_id": "1993-036BLU",
        "meta_epoch": "2025-12-22T10:57:29.496960",
        "meta_mean_motion": 13.75314212,
        "meta_eccentricity": 0.03164965,
        "meta_inclination": 73.9061,
        "meta_ra_of_asc_node": 257.8008,
        "meta_arg_of_pericenter": 249.1105,
        "meta_mean_anomaly": 107.5867,
        "meta_ephemeris_type": 0,
        "meta_classification_type": "U",
        "meta_norad_cat_id": 37491,
        "meta_element_set_no": 999,
        "meta_rev_at_epoch": 55880,
        "meta_bstar": 0.00087641846,
        "meta_mean_motion_dot": 1.186e-05,
        "meta_mean_motion_ddot": 0,
        "tle_line1": "1 37491U 93036BLU 25356.45659140  .00001186  00000+0  87642-3 0  9995",
        "tle_line2": "2 37491  73.9061 257.8008 0316496 249.1105 107.5867 13.75314212558802"
      },
      "geometry": {
        "type": "Point",
        "coordinates": [
          -93.59022148140583,
          31.537635170751543
        ]
      }
    },
    {
      "type": "Feature",
      "properties": {
        "norad_id": 37498,
        "name": "COSMOS 2251 DEB",
        "group": "cosmos-2251-debris",
        "lat": -63.54981653603119,
        "lon": 18.827242597063314,
        "alt_km": 708.8603413036026,
        "timestamp": "2025-12-23T09:49:07.480692+00:00",
        "meta_object_name": "COSMOS 2251 DEB",
        "meta_object_id": "1993-036BMB",
        "meta_epoch": "2025-12-17T05:47:45.632832",
        "meta_mean_motion": 14.54797097,
        "meta_eccentricity": 0.00121661,
        "meta_inclination": 74.035,
        "meta_ra_of_asc_node": 175.365,
        "meta_arg_of_pericenter": 238.5243,
        "meta_mean_anomaly": 121.4732,
        "meta_ephemeris_type": 0,
        "meta_classification_type": "U",
        "meta_norad_cat_id": 37498,
        "meta_element_set_no": 999,
        "meta_rev_at_epoch": 65420,
        "meta_bstar": 0.00050498457,
        "meta_mean_motion_dot": 2.139e-05,
        "meta_mean_motion_ddot": 0,
        "tle_line1": "1 37498U 93036BMB 25351.24150038  .00002139  00000+0  50498-3 0  9994",
        "tle_line2": "2 37498  74.0350 175.3650 0012166 238.5243 121.4732 14.54797097654202"
      },
      "geometry": {
        "type": "Point",
        "coordinates": [
          18.827242597063314,
          -63.54981653603119
        ]
      }
    },
    {
      "type": "Feature",
      "properties": {
        "norad_id": 37499,
        "name": "COSMOS 2251 DEB",
        "group": "cosmos-2251-debris",
        "lat": 34.51172466225179,
        "lon": -45.992388854486016,
        "alt_km": 756.3190085891711,
        "timestamp": "2025-12-23T09:49:07.480703+00:00",
        "meta_object_name": "COSMOS 2251 DEB",
        "meta_object_id": "1993-036BMC",
        "meta_epoch": "2025-12-21T14:07:49.772928",
        "meta_mean_motion": 14.34350352,
        "meta_eccentricity": 0.0027281,
        "meta_inclination": 74.0381,
        "meta_ra_of_asc_node": 305.9892,
        "meta_arg_of_pericenter": 19.4134,
        "meta_mean_anomaly": 340.805,
        "meta_ephemeris_type": 0,
        "meta_classification_type": "U",
        "meta_norad_cat_id": 37499,
        "meta_element_set_no": 999,
        "meta_rev_at_epoch": 85276,
        "meta_bstar": 0.000141,
        "meta_mean_motion_dot": 3.72e-06,
        "meta_mean_motion_ddot": 0,
        "tle_line1": "1 37499U 93036BMC 25355.58877052  .00000372  00000+0  14100-3 0  9995",
        "tle_line2": "2 37499  74.0381 305.9892 0027281  19.4134 340.8050 14.34350352852763"
      },
      "geometry": {
        "type": "Point",
        "coordinates": [
          -45.992388854486016,
          34.51172466225179
        ]
      }
    },
    {
      "type": "Feature",
      "properties": {
        "norad_id": 37528,
        "name": "COSMOS 2251 DEB",
        "group": "cosmos-2251-debris",
        "lat": 73.76785180689012,
        "lon": -157.36819906848595,
        "alt_km": 730.1610051187554,
        "timestamp": "2025-12-23T09:49:07.480713+00:00",
        "meta_object_name": "COSMOS 2251 DEB",
        "meta_object_id": "1993-036BNH",
        "meta_epoch": "2025-12-22T00:17:10.365792",
        "meta_mean_motion": 14.50551817,
        "meta_eccentricity": 0.00211657,
        "meta_inclination": 74.0378,
        "meta_ra_of_asc_node": 104.7119,
        "meta_arg_of_pericenter": 251.9967,
        "meta_mean_anomaly": 107.8887,
        "meta_ephemeris_type": 0,
        "meta_classification_type": "U",
        "meta_norad_cat_id": 37528,
        "meta_element_set_no": 999,
        "meta_rev_at_epoch": 86065,
        "meta_bstar": 0.00046776664,
        "meta_mean_motion_dot": 1.81e-05,
        "meta_mean_motion_ddot": 0,
        "tle_line1": "1 37528U 93036BNH 25356.01192553  .00001810  00000+0  46777-3 0  9996",
        "tle_line2": "2 37528  74.0378 104.7119 0021165 251.9967 107.8887 14.50551817860654"
      },
      "geometry": {
        "type": "Point",
        "coordinates": [
          -157.36819906848595,
          73.76785180689012
        ]
      }
    },
    {
      "type": "Feature",
      "properties": {
        "norad_id": 37530,
        "name": "COSMOS 2251 DEB",
        "group": "cosmos-2251-debris",
        "lat": 66.74400785222603,
        "lon": 92.340860921555,
        "alt_km": 770.9963489584934,
        "timestamp": "2025-12-23T09:49:07.480723+00:00",
        "meta_object_name": "COSMOS 2251 DEB",
        "meta_object_id": "1993-036BNK",
        "meta_epoch": "2025-12-20T04:25:20.724960",
        "meta_mean_motion": 14.34512323,
        "meta_eccentricity": 0.0026208,
        "meta_inclination": 74.0363,
        "meta_ra_of_asc_node": 320.008,
        "meta_arg_of_pericenter": 20.0363,
        "meta_mean_anomaly": 359.5359,
        "meta_ephemeris_type": 0,
        "meta_classification_type": "U",
        "meta_norad_cat_id": 37530,
        "meta_element_set_no": 999,
        "meta_rev_at_epoch": 85339,
        "meta_bstar": 0.00016497605,
        "meta_mean_motion_dot": 4.41e-06,
        "meta_mean_motion_ddot": 0,
        "tle_line1": "1 37530U 93036BNK 25354.18426765  .00000441  00000+0  16498-3 0  9996",
        "tle_line2": "2 37530  74.0363 320.0080 0026208  20.0363 359.5359 14.34512323853393"
      },
      "geometry": {
        "type": "Point",
        "coordinates": [
          92.340860921555,
          66.74400785222603
        ]
      }
    },
    {
      "type": "Feature",
      "properties": {
        "norad_id": 37532,
        "name": "COSMOS 2251 DEB",
        "group": "cosmos-2251-debris",
        "lat": -9.909940155727064,
        "lon": 18.81623652449097,
        "alt_km": 757.0656448977907,
        "timestamp": "2025-12-23T09:49:07.480733+00:00",
        "meta_object_name": "COSMOS 2251 DEB",
        "meta_object_id": "1993-036BNM",
        "meta_epoch": "2025-12-14T09:22:45.259968",
        "meta_mean_motion": 14.42410404,
        "meta_eccentricity": 0.00160101,
        "meta_inclination": 74.0496,
        "meta_ra_of_asc_node": 212.6604,
        "meta_arg_of_pericenter": 313.2255,
        "meta_mean_anomaly": 226.6563,
        "meta_ephemeris_type": 0,
        "meta_classification_type": "U",
        "meta_norad_cat_id": 37532,
        "meta_element_set_no": 999,
        "meta_rev_at_epoch": 84939,
        "meta_bstar": 0.00027461522,
        "meta_mean_motion_dot": 8.83e-06,
        "meta_mean_motion_ddot": 0,
        "tle_line1": "1 37532U 93036BNM 25348.39080162  .00000883  00000+0  27462-3 0  9994",
        "tle_line2": "2 37532  74.0496 212.6604 0016010 313.2255 226.6563 14.42410404849399"
      },
      "geometry": {
        "type": "Point",
        "coordinates": [
          18.81623652449097,
          -9.909940155727064
        ]
      }
    }
  ]
}